STARLINK-31884          
1 59676C 24084Y   26177.70187500  .00000820  00000+0  29706-4 0  1777
2 59676  43.0007 146.1381 0001242 256.7314 171.3451 15.27558453    18
STARLINK-32108          
1 59682C 24086A   26177.71437500 -.00022786  00000+0 -82561-3 0  1779
2 59682  42.9997 167.7891 0001621 266.7426 104.0318 15.27576934    11
STARLINK-32080          
1 59683C 24086B   26177.73312500 -.00016499  00000+0 -59794-3 0  1770
2 59683  42.9989 167.9757 0001500 269.0453  84.6929 15.27568420    10
STARLINK-32091          
1 59684C 24086C   26177.67479167 -.00022926  00000+0 -83067-3 0  1779
2 59684  43.0009 156.9115 0001355 267.4009 202.8434 15.27578189    17
STARLINK-32085          
1 59685C 24086D   26177.63104167 -.00028731  00000+0 -10408-2 0  1779
2 59685  42.9999 164.6732 0001545 269.8352  70.1600 15.27589302    13
STARLINK-32100          
1 59686C 24086E   26177.71715278  .00004395  00000+0  15923-3 0  1776
2 59686  43.0000 146.0603 0001460 264.4982  71.2100 15.27569441    15
STARLINK-32089          
1 59687C 24086F   26177.69979167 -.00021744  00000+0 -78791-3 0  1774
2 59687  43.0018 164.0888 0001578 282.0637 161.3653 15.27574013    18
STARLINK-32103          
1 59688C 24086G   26177.66437500 -.00030159  00000+0 -10929-2 0  1770
2 59688  42.9993 153.9013 0001511 268.6512 338.8527 15.27577722    16
STARLINK-32105          
1 59689C 24086H   26177.74145833 -.00006870  00000+0 -24891-3 0  1772
2 59689  43.0013 163.7676 0001444 266.9298  81.2768 15.27570953    18
STARLINK-32106          
1 59690C 24086J   26177.69770833 -.00019750  00000+0 -71569-3 0  1777
2 59690  42.9985 156.6239 0001303 269.5345  30.6130 15.27571590    17
STARLINK-32090          
1 59691C 24086K   26177.68312500 -.00027440  00000+0 -99436-3 0  1778
2 59691  42.9990 168.2311 0001423 267.3493 192.3016 15.27575820    16
STARLINK-32088          
1 59693C 24086M   26177.66298611 -.00024811  00000+0 -89934-3 0  1775
2 59693  43.0006 156.9235 0001373 268.7408 157.7228 15.27566295    18
STARLINK-32107          
1 59694C 24086N   26177.66368056 -.00026987  00000+0 -97780-3 0  1771
2 59694  42.9990 164.7228 0001442 268.8481 151.8260 15.27580119    19
STARLINK-32104          
1 59695C 24086P   26177.64145833 -.00037859  00000+0 -13719-2 0  1775
2 59695  42.9988 161.3070 0001377 268.6584  34.1397 15.27581913    11
STARLINK-32094          
1 59696C 24086Q   26177.69076389 -.00028040  00000+0 -10167-2 0  1776
2 59696  42.9985 164.6175 0001684 265.9752 282.6778 15.27557219    14
STARLINK-32099          
1 59697C 24086R   26177.73312500 -.00013865  00000+0 -50219-3 0  1772
2 59697  43.0019 163.8644 0001660 265.6254  15.4339 15.27584351    17
STARLINK-32096          
1 59698C 24086S   26177.73590278 -.00013034  00000+0 -47215-3 0  1773
2 59698  43.0008 164.0285 0001782 264.1150 314.3777 15.27579201    19
STARLINK-32102          
1 59699C 24086T   26177.67895833 -.00032750  00000+0 -11868-2 0  1772
2 59699  43.0019 164.2544 0001599 272.6343  34.8550 15.27578560    16
STARLINK-32092          
1 59700C 24086U   26177.69840278 -.00028129  00000+0 -10193-2 0  1775
2 59700  42.9995 164.3740 0001536 270.2967  45.2013 15.27578491    19
STARLINK-32093          
1 59701C 24086V   26177.68729167 -.00032270  00000+0 -11691-2 0  1774
2 59701  42.9998 164.4032 0001533 271.2930 357.1846 15.27584551    19
STARLINK-32087          
1 59702C 24086W   26177.72756944 -.00015816  00000+0 -57313-3 0  1772
2 59702  43.0015 164.0260 0001734 270.4238 283.4923 15.27570965    17
STARLINK-32086          
1 59703C 24086X   26177.72965278 -.00012751  00000+0 -46174-3 0  1773
2 59703  43.0011 163.7811 0001348 263.1258  41.1514 15.27593146    15
STARLINK-32098          
1 59704C 24086Y   26177.72340278 -.00014842  00000+0 -53785-3 0  1770
2 59704  42.9991 164.3336 0001447 265.6310 145.0781 15.27568705    19
STARLINK-11107 [DTC]    
1 59708C 24088A   26177.64562500 -.00068344  00000+0 -56272-3 0  1771
2 59708  53.1564 148.8512 0001008  82.5674 122.0284 15.69754358    18
STARLINK-11088 [DTC]    
1 59709C 24088B   26177.70881944 -.00029570  00000+0 -24375-3 0  1772
2 59709  53.1564 149.1529 0000967  78.6112 178.2483 15.69707180    12
STARLINK-11092 [DTC]    
1 59710C 24088C   26177.72548611 -.00052839  00000+0 -43527-3 0  1771
2 59710  53.1567 149.0144 0001211  77.4665 301.3360 15.69734803    17
STARLINK-11082 [DTC]    
1 59711C 24088D   26177.71576389 -.00082560  00000+0 -68004-3 0  1775
2 59711  53.1566 149.0051 0001112  74.1059 277.4595 15.69751879    10
STARLINK-11108 [DTC]    
1 59712C 24088E   26177.67270833 -.00074789  00000+0 -61598-3 0  1771
2 59712  53.1565 149.1603 0001342  67.0824  68.7658 15.69749442    14
STARLINK-11100 [DTC]    
1 59713C 24088F   26177.63381944 -.00072475  00000+0 -59689-3 0  1772
2 59713  53.1563 149.2946 0001165  75.4093 228.2872 15.69749908    16
STARLINK-11094 [DTC]    
1 59714C 24088G   26177.66020833  .00032404  00000+0  26718-3 0  1776
2 59714  53.1564 149.1141 0001178  84.5453  36.1310 15.69669989    12
STARLINK-11101 [DTC]    
1 59715C 24088H   26177.73659722 -.00008315  00000+0 -68495-4 0  1775
2 59715  53.1562 148.6161 0001005  74.8405 173.1980 15.69712672    18
STARLINK-11099 [DTC]    
1 59716C 24088J   26177.68937500 -.00041895  00000+0 -34499-3 0  1779
2 59716  53.1564 148.9060 0001251 105.9832 207.3099 15.69737897    12
STARLINK-11084 [DTC]    
1 59717C 24088K   26177.64770833 -.00091568  00000+0 -75407-3 0  1776
2 59717  53.1560 148.9976 0001151  74.2851  58.8832 15.69761659    10
STARLINK-11103 [DTC]    
1 59718C 24088L   26177.72131944 -.00047129  00000+0 -38825-3 0  1777
2 59718  53.1560 148.5772 0001004  68.8758 148.2595 15.69731063    19
STARLINK-11096 [DTC]    
1 59719C 24088M   26177.64076389 -.00093687  00000+0 -77150-3 0  1774
2 59719  53.1568 149.5395 0001064  87.4009 116.8811 15.69763598    12
STARLINK-11095 [DTC]    
1 59720C 24088N   26177.68798611 -.00071203  00000+0 -58626-3 0  1776
2 59720  53.1560 148.6837 0001087  84.6218 331.7686 15.69755819    18
STARLINK-31834          
1 59721C 24088P   26177.68104167 -.00003065  00000+0 -98606-4 0  1778
2 59721  53.1597 353.5649 0001240  71.8575 177.3434 15.31687741    14
STARLINK-31843          
1 59722C 24088Q   26177.65812500 -.00016132  00000+0 -51896-3 0  1771
2 59722  53.1595 353.7203 0001134  78.7411  18.2701 15.31697180    16
STARLINK-31766          
1 59723C 24088R   26177.73937500 -.00021191  00000+0 -71449-3 0  1776
2 59723  53.1587 353.4598 0000707  63.4173  62.4712 15.30190757    13
STARLINK-31836          
1 59724C 24088S   26177.73381944 -.00020597  00000+0 -66263-3 0  1779
2 59724  53.1582 352.8654 0001198  78.8109 333.3372 15.31698738    14
STARLINK-31820          
1 59725C 24088T   26177.73590278 -.00006666  00000+0 -21443-3 0  1774
2 59725  53.1594 352.9541 0001188  75.5247 296.6000 15.31693144    15
STARLINK-31642          
1 59726C 24088U   26177.66020833 -.00008460  00000+0 -27232-3 0  1778
2 59726  53.1598 353.3570 0001220 111.0451 177.7575 15.31675330    10
STARLINK-31827          
1 59727C 24088V   26177.74145833 -.00001481  00000+0 -47650-4 0  1779
2 59727  53.1603 353.2296 0001192  70.2543 178.0283 15.31689669    18
STARLINK-31472          
1 59730C 24090A   26177.65743056 -.00038654  00000+0 -14012-2 0  1773
2 59730  43.0016 288.0851 0001362 270.5061 158.5570 15.27570336    16
STARLINK-31817          
1 59731C 24090B   26177.72131944  .00041765  00000+0  15134-2 0  1770
2 59731  43.0034 287.4930 0001867 278.0253 241.8078 15.27541580    12
STARLINK-31833          
1 59733C 24090D   26177.70118056  .00054453  00000+0  19706-2 0  1776
2 59733  43.0001 288.0239 0001615 285.6944 306.3735 15.27579484    10
STARLINK-31849          
1 59734C 24090E   26177.73798611  .00049244  00000+0  17847-2 0  1777
2 59734  43.0009 280.7593 0001538 266.1514 226.9280 15.27533563    12
STARLINK-31661          
1 59735C 24090F   26177.70534722  .00051391  00000+0  18621-2 0  1773
2 59735  43.0002 280.7916 0001549 282.6650  94.3481 15.27540864    13
STARLINK-31707          
1 59736C 24090G   26177.65048611  .00013399  00000+0  48553-3 0  1779
2 59736  43.0023 288.0794 0001743 285.0926 126.9027 15.27557781    15
STARLINK-31821          
1 59737C 24090H   26177.68034722  .00031056  00000+0  11254-2 0  1778
2 59737  43.0007 288.0627 0001568 282.3408 230.3924 15.27546938    11
STARLINK-31819          
1 59738C 24090J   26177.71506944  .00045647  00000+0  16540-2 0  1777
2 59738  43.0014 287.7945 0001632 281.6686  90.5399 15.27542621    18
STARLINK-31726          
1 59739C 24090K   26177.73173611  .00048034  00000+0  17402-2 0  1772
2 59739  43.0029 287.3818 0001159 291.6713 306.7050 15.27547013    12
STARLINK-31759          
1 59740C 24090L   26177.64354167 -.00021379  00000+0 -77479-3 0  1777
2 59740  43.0008 288.5017 0001263 263.6250 307.4465 15.27570294    11
STARLINK-31818          
1 59741C 24090M   26177.64076389  .00023870  00000+0  86502-3 0  1778
2 59741  43.0004 288.4148 0001458 289.1328 309.0703 15.27549632    12
STARLINK-31816          
1 59742C 24090N   26177.64006944  .00029549  00000+0  10708-2 0  1772
2 59742  43.0012 288.5845 0001248 290.4376 226.1401 15.27548610    11
STARLINK-31809          
1 59743C 24090P   26177.71715278  .00076880  00000+0  27859-2 0  1773
2 59743  43.0001 280.7714 0001612 263.4782 157.3028 15.27524092    13
STARLINK-31779          
1 59744C 24090Q   26177.72687500  .00058024  00000+0  21024-2 0  1779
2 59744  43.0035 287.5092 0001690 286.1624 243.0130 15.27536891    15
STARLINK-31805          
1 59745C 24090R   26177.66715278  .00026778  00000+0  97037-3 0  1776
2 59745  43.0022 287.6946 0001394 287.3387 336.7006 15.27549517    12
STARLINK-31681          
1 59746C 24090S   26177.71854167  .00069596  00000+0  25215-2 0  1777
2 59746  43.0008 280.8161 0001512 287.8543 119.3665 15.27534640    19
